{"fetched_at":"2026-07-16T06:42:28.334Z","source":"https://celestrak.org/NORAD/elements/gp.php?GROUP=globalstar&FORMAT=JSON","constellation":"globalstar","records":[{"OBJECT_NAME":"GLOBALSTAR M080","OBJECT_ID":"2011-080B","EPOCH":"2026-07-15T10:23:26.721024","CLASSIFICATION_TYPE":"U","MEAN_MOTION":12.62257435,"ECCENTRICITY":0.00002984,"INCLINATION":52.0069,"RA_OF_ASC_NODE":293.0224,"ARG_OF_PERICENTER":83.1716,"MEAN_ANOMALY":355.0622,"EPHEMERIS_TYPE":0,"NORAD_CAT_ID":38041,"ELEMENT_SET_NO":999,"REV_AT_EPOCH":67245,"BSTAR":0.00011594858,"MEAN_MOTION_DOT":-8.3e-7,"MEAN_MOTION_DDOT":0},{"OBJECT_NAME":"GLOBALSTAR M082","OBJECT_ID":"2011-080C","EPOCH":"2026-07-15T10:53:19.711104","CLASSIFICATION_TYPE":"U","MEAN_MOTION":12.62264246,"ECCENTRICITY":0.0000194,"INCLINATION":52.0062,"RA_OF_ASC_NODE":248.4631,"ARG_OF_PERICENTER":88.4428,"MEAN_ANOMALY":14.0807,"EPHEMERIS_TYPE":0,"NORAD_CAT_ID":38042,"ELEMENT_SET_NO":999,"REV_AT_EPOCH":67316,"BSTAR":0.00017723354,"MEAN_MOTION_DOT":-7.2e-7,"MEAN_MOTION_DDOT":0},{"OBJECT_NAME":"GLOBALSTAR M092","OBJECT_ID":"2011-080D","EPOCH":"2026-07-15T20:05:11.430240","CLASSIFICATION_TYPE":"U","MEAN_MOTION":12.62267811,"ECCENTRICITY":0.00007791,"INCLINATION":52.0105,"RA_OF_ASC_NODE":337.6936,"ARG_OF_PERICENTER":103.6458,"MEAN_ANOMALY":60.5815,"EPHEMERIS_TYPE":0,"NORAD_CAT_ID":38043,"ELEMENT_SET_NO":999,"REV_AT_EPOCH":67166,"BSTAR":0.000088256051,"MEAN_MOTION_DOT":-8.8e-7,"MEAN_MOTION_DDOT":0},{"OBJECT_NAME":"GLOBALSTAR M090","OBJECT_ID":"2011-080E","EPOCH":"2026-07-15T07:36:29.637216","CLASSIFICATION_TYPE":"U","MEAN_MOTION":12.62269578,"ECCENTRICITY":0.00004273,"INCLINATION":52.0106,"RA_OF_ASC_NODE":242.844,"ARG_OF_PERICENTER":91.1185,"MEAN_ANOMALY":348.7415,"EPHEMERIS_TYPE":0,"NORAD_CAT_ID":38044,"ELEMENT_SET_NO":999,"REV_AT_EPOCH":67326,"BSTAR":0.00028459492,"MEAN_MOTION_DOT":-5.3e-7,"MEAN_MOTION_DDOT":0},{"OBJECT_NAME":"GLOBALSTAR M086","OBJECT_ID":"2011-080F","EPOCH":"2026-07-15T10:09:45.575424","CLASSIFICATION_TYPE":"U","MEAN_MOTION":12.62287762,"ECCENTRICITY":0.0001511,"INCLINATION":51.9879,"RA_OF_ASC_NODE":242.4025,"ARG_OF_PERICENTER":112.088,"MEAN_ANOMALY":355.3845,"EPHEMERIS_TYPE":0,"NORAD_CAT_ID":38045,"ELEMENT_SET_NO":999,"REV_AT_EPOCH":67322,"BSTAR":0.000091630565,"MEAN_MOTION_DOT":-8.7e-7,"MEAN_MOTION_DDOT":0},{"OBJECT_NAME":"GLOBALSTAR M097","OBJECT_ID":"2013-005A","EPOCH":"2026-07-15T21:45:38.821248","CLASSIFICATION_TYPE":"U","MEAN_MOTION":12.62271369,"ECCENTRICITY":0.00004563,"INCLINATION":52.0027,"RA_OF_ASC_NODE":155.9101,"ARG_OF_PERICENTER":40.4806,"MEAN_ANOMALY":319.6095,"EPHEMERIS_TYPE":0,"NORAD_CAT_ID":39072,"ELEMENT_SET_NO":999,"REV_AT_EPOCH":62053,"BSTAR":-0.00012785122,"MEAN_MOTION_DOT":-0.00000127,"MEAN_MOTION_DDOT":0},{"OBJECT_NAME":"GLOBALSTAR M093","OBJECT_ID":"2013-005B","EPOCH":"2026-07-15T19:13:04.975392","CLASSIFICATION_TYPE":"U","MEAN_MOTION":12.62266309,"ECCENTRICITY":0.00006689,"INCLINATION":52.0089,"RA_OF_ASC_NODE":149.5905,"ARG_OF_PERICENTER":45.0798,"MEAN_ANOMALY":315.0123,"EPHEMERIS_TYPE":0,"NORAD_CAT_ID":39073,"ELEMENT_SET_NO":999,"REV_AT_EPOCH":62047,"BSTAR":-0.000076055192,"MEAN_MOTION_DOT":-0.00000117,"MEAN_MOTION_DDOT":0},{"OBJECT_NAME":"GLOBALSTAR M094","OBJECT_ID":"2013-005C","EPOCH":"2026-07-15T19:12:52.488000","CLASSIFICATION_TYPE":"U","MEAN_MOTION":12.62264174,"ECCENTRICITY":0.00009964,"INCLINATION":51.9974,"RA_OF_ASC_NODE":63.68,"ARG_OF_PERICENTER":63.3164,"MEAN_ANOMALY":296.7804,"EPHEMERIS_TYPE":0,"NORAD_CAT_ID":39074,"ELEMENT_SET_NO":999,"REV_AT_EPOCH":62208,"BSTAR":1.12992e-7,"MEAN_MOTION_DOT":-0.00000104,"MEAN_MOTION_DDOT":0},{"OBJECT_NAME":"GLOBALSTAR M096","OBJECT_ID":"2013-005D","EPOCH":"2026-07-15T23:20:24.215136","CLASSIFICATION_TYPE":"U","MEAN_MOTION":12.62265716,"ECCENTRICITY":0.00007588,"INCLINATION":52.0071,"RA_OF_ASC_NODE":111.9802,"ARG_OF_PERICENTER":43.7905,"MEAN_ANOMALY":316.3022,"EPHEMERIS_TYPE":0,"NORAD_CAT_ID":39075,"ELEMENT_SET_NO":999,"REV_AT_EPOCH":62102,"BSTAR":0.000036868834,"MEAN_MOTION_DOT":-9.7e-7,"MEAN_MOTION_DDOT":0},{"OBJECT_NAME":"GLOBALSTAR M078","OBJECT_ID":"2013-005E","EPOCH":"2026-07-15T22:41:42.606528","CLASSIFICATION_TYPE":"U","MEAN_MOTION":12.62260137,"ECCENTRICITY":0.00008517,"INCLINATION":51.9845,"RA_OF_ASC_NODE":196.0329,"ARG_OF_PERICENTER":340.3417,"MEAN_ANOMALY":19.7416,"EPHEMERIS_TYPE":0,"NORAD_CAT_ID":39076,"ELEMENT_SET_NO":999,"REV_AT_EPOCH":61964,"BSTAR":-0.000088472218,"MEAN_MOTION_DOT":-0.0000012,"MEAN_MOTION_DDOT":0},{"OBJECT_NAME":"GLOBALSTAR M095","OBJECT_ID":"2013-005F","EPOCH":"2026-07-15T17:38:03.061824","CLASSIFICATION_TYPE":"U","MEAN_MOTION":12.62264145,"ECCENTRICITY":0.00004688,"INCLINATION":52.0054,"RA_OF_ASC_NODE":194.3192,"ARG_OF_PERICENTER":13.1932,"MEAN_ANOMALY":346.8947,"EPHEMERIS_TYPE":0,"NORAD_CAT_ID":39077,"ELEMENT_SET_NO":999,"REV_AT_EPOCH":61947,"BSTAR":-0.000085055258,"MEAN_MOTION_DOT":-0.00000119,"MEAN_MOTION_DDOT":0},{"OBJECT_NAME":"GLOBALSTAR M087","OBJECT_ID":"2022-064A","EPOCH":"2026-07-15T16:02:54.277728","CLASSIFICATION_TYPE":"U","MEAN_MOTION":12.62269258,"ECCENTRICITY":0.00009182,"INCLINATION":52.0013,"RA_OF_ASC_NODE":335.7423,"ARG_OF_PERICENTER":85.2007,"MEAN_ANOMALY":274.8964,"EPHEMERIS_TYPE":0,"NORAD_CAT_ID":52888,"ELEMENT_SET_NO":999,"REV_AT_EPOCH":19473,"BSTAR":0.000004333312,"MEAN_MOTION_DOT":-0.00000103,"MEAN_MOTION_DDOT":0}]}
